CCSDS_OMM_VERS = 2.0
CREATION_DATE  = 
ORIGINATOR     = 

OBJECT_NAME    = ATLAS CENTAUR R/B
OBJECT_ID      = 1972-065B
CENTER_NAME    = EARTH
REF_FRAME      = TEME
TIME_SYSTEM    = UTC
MEAN_ELEMENT_THEORY = SGP/SGP4

EPOCH          = 2026-02-07T06:54:17.513280
MEAN_MOTION    = 14.77597814
ECCENTRICITY   = .0033127
INCLINATION    = 35.0010
RA_OF_ASC_NODE = 123.9057
ARG_OF_PERICENTER = 114.6511
MEAN_ANOMALY   = 245.7645

EPHEMERIS_TYPE = 0
CLASSIFICATION_TYPE = U
NORAD_CAT_ID   = 6155
ELEMENT_SET_NO = 999
REV_AT_EPOCH   = 83676
BSTAR          = .25445E-3
MEAN_MOTION_DOT = .1842E-4
MEAN_MOTION_DDOT = 0

CCSDS_OMM_VERS = 2.0
CREATION_DATE  = 
ORIGINATOR     = 

OBJECT_NAME    = SL-8 R/B
OBJECT_ID      = 1975-112B
CENTER_NAME    = EARTH
REF_FRAME      = TEME
TIME_SYSTEM    = UTC
MEAN_ELEMENT_THEORY = SGP/SGP4

EPOCH          = 2026-02-07T12:32:53.020896
MEAN_MOTION    = 14.38188718
ECCENTRICITY   = .00154608
INCLINATION    = 74.0593
RA_OF_ASC_NODE = 74.4096
ARG_OF_PERICENTER = 178.1390
MEAN_ANOMALY   = 181.9824

EPHEMERIS_TYPE = 0
CLASSIFICATION_TYPE = U
NORAD_CAT_ID   = 8459
ELEMENT_SET_NO = 999
REV_AT_EPOCH   = 62753
BSTAR          = .90788752E-4
MEAN_MOTION_DOT = .25E-5
MEAN_MOTION_DDOT = 0

CCSDS_OMM_VERS = 2.0
CREATION_DATE  = 
ORIGINATOR     = 

OBJECT_NAME    = SL-3 R/B
OBJECT_ID      = 1977-057B
CENTER_NAME    = EARTH
REF_FRAME      = TEME
TIME_SYSTEM    = UTC
MEAN_ELEMENT_THEORY = SGP/SGP4

EPOCH          = 2026-02-07T19:08:15.181152
MEAN_MOTION    = 15.44625566
ECCENTRICITY   = .0008081
INCLINATION    = 97.5734
RA_OF_ASC_NODE = 209.4310
ARG_OF_PERICENTER = 38.0509
MEAN_ANOMALY   = 322.1308

EPHEMERIS_TYPE = 0
CLASSIFICATION_TYPE = U
NORAD_CAT_ID   = 10114
ELEMENT_SET_NO = 999
REV_AT_EPOCH   = 66371
BSTAR          = .3541E-3
MEAN_MOTION_DOT = .16423E-3
MEAN_MOTION_DDOT = 0

CCSDS_OMM_VERS = 2.0
CREATION_DATE  = 
ORIGINATOR     = 

OBJECT_NAME    = SEASAT 1
OBJECT_ID      = 1978-064A
CENTER_NAME    = EARTH
REF_FRAME      = TEME
TIME_SYSTEM    = UTC
MEAN_ELEMENT_THEORY = SGP/SGP4

EPOCH          = 2026-02-07T19:42:12.993408
MEAN_MOTION    = 14.46135983
ECCENTRICITY   = .000158
INCLINATION    = 108.0163
RA_OF_ASC_NODE = 62.8160
ARG_OF_PERICENTER = 291.5487
MEAN_ANOMALY   = 68.5490

EPHEMERIS_TYPE = 0
CLASSIFICATION_TYPE = U
NORAD_CAT_ID   = 10967
ELEMENT_SET_NO = 999
REV_AT_EPOCH   = 50219
BSTAR          = .15825E-3
MEAN_MOTION_DOT = .429E-5
MEAN_MOTION_DDOT = 0

CCSDS_OMM_VERS = 2.0
CREATION_DATE  = 
ORIGINATOR     = 

OBJECT_NAME    = SL-14 R/B
OBJECT_ID      = 1979-011B
CENTER_NAME    = EARTH
REF_FRAME      = TEME
TIME_SYSTEM    = UTC
MEAN_ELEMENT_THEORY = SGP/SGP4

EPOCH          = 2026-02-07T17:36:53.496864
MEAN_MOTION    = 14.91871219
ECCENTRICITY   = .0016733
INCLINATION    = 82.5255
RA_OF_ASC_NODE = 124.9937
ARG_OF_PERICENTER = 152.9911
MEAN_ANOMALY   = 207.2183

EPHEMERIS_TYPE = 0
CLASSIFICATION_TYPE = U
NORAD_CAT_ID   = 11267
ELEMENT_SET_NO = 999
REV_AT_EPOCH   = 52431
BSTAR          = .83157E-4
MEAN_MOTION_DOT = .867E-5
MEAN_MOTION_DDOT = 0

CCSDS_OMM_VERS = 2.0
CREATION_DATE  = 
ORIGINATOR     = 

OBJECT_NAME    = SL-8 R/B
OBJECT_ID      = 1979-089B
CENTER_NAME    = EARTH
REF_FRAME      = TEME
TIME_SYSTEM    = UTC
MEAN_ELEMENT_THEORY = SGP/SGP4

EPOCH          = 2026-02-07T17:06:17.692992
MEAN_MOTION    = 14.42331914
ECCENTRICITY   = .0016527
INCLINATION    = 74.0698
RA_OF_ASC_NODE = 146.5320
ARG_OF_PERICENTER = 322.9540
MEAN_ANOMALY   = 37.0474

EPHEMERIS_TYPE = 0
CLASSIFICATION_TYPE = U
NORAD_CAT_ID   = 11574
ELEMENT_SET_NO = 999
REV_AT_EPOCH   = 43178
BSTAR          = .13011E-3
MEAN_MOTION_DOT = .404E-5
MEAN_MOTION_DDOT = 0

CCSDS_OMM_VERS = 2.0
CREATION_DATE  = 
ORIGINATOR     = 

OBJECT_NAME    = SL-14 R/B
OBJECT_ID      = 1980-005B
CENTER_NAME    = EARTH
REF_FRAME      = TEME
TIME_SYSTEM    = UTC
MEAN_ELEMENT_THEORY = SGP/SGP4

EPOCH          = 2026-02-07T20:40:36.280992
MEAN_MOTION    = 14.90890495
ECCENTRICITY   = .0014112
INCLINATION    = 82.5173
RA_OF_ASC_NODE = 335.5214
ARG_OF_PERICENTER = 262.5976
MEAN_ANOMALY   = 97.3639

EPHEMERIS_TYPE = 0
CLASSIFICATION_TYPE = U
NORAD_CAT_ID   = 11672
ELEMENT_SET_NO = 999
REV_AT_EPOCH   = 47204
BSTAR          = .94162E-4
MEAN_MOTION_DOT = .954E-5
MEAN_MOTION_DDOT = 0

CCSDS_OMM_VERS = 2.0
CREATION_DATE  = 
ORIGINATOR     = 

OBJECT_NAME    = SL-8 R/B
OBJECT_ID      = 1981-003B
CENTER_NAME    = EARTH
REF_FRAME      = TEME
TIME_SYSTEM    = UTC
MEAN_ELEMENT_THEORY = SGP/SGP4

EPOCH          = 2026-02-07T20:33:24.908256
MEAN_MOTION    = 15.09891789
ECCENTRICITY   = .0263427
INCLINATION    = 82.9393
RA_OF_ASC_NODE = 317.5857
ARG_OF_PERICENTER = 282.8393
MEAN_ANOMALY   = 74.3527

EPHEMERIS_TYPE = 0
CLASSIFICATION_TYPE = U
NORAD_CAT_ID   = 12139
ELEMENT_SET_NO = 999
REV_AT_EPOCH   = 31017
BSTAR          = .59494E-3
MEAN_MOTION_DOT = .22436E-3
MEAN_MOTION_DDOT = 0

CCSDS_OMM_VERS = 2.0
CREATION_DATE  = 
ORIGINATOR     = 

OBJECT_NAME    = SL-3 R/B
OBJECT_ID      = 1981-046B
CENTER_NAME    = EARTH
REF_FRAME      = TEME
TIME_SYSTEM    = UTC
MEAN_ELEMENT_THEORY = SGP/SGP4

EPOCH          = 2026-02-07T20:39:57.868416
MEAN_MOTION    = 15.41157518
ECCENTRICITY   = .0020656
INCLINATION    = 81.2341
RA_OF_ASC_NODE = 325.5315
ARG_OF_PERICENTER = 119.8461
MEAN_ANOMALY   = 240.4838

EPHEMERIS_TYPE = 0
CLASSIFICATION_TYPE = U
NORAD_CAT_ID   = 12465
ELEMENT_SET_NO = 999
REV_AT_EPOCH   = 43383
BSTAR          = .38865E-3
MEAN_MOTION_DOT = .16272E-3
MEAN_MOTION_DDOT = 0

CCSDS_OMM_VERS = 2.0
CREATION_DATE  = 
ORIGINATOR     = 

OBJECT_NAME    = SL-3 R/B
OBJECT_ID      = 1981-103B
CENTER_NAME    = EARTH
REF_FRAME      = TEME
TIME_SYSTEM    = UTC
MEAN_ELEMENT_THEORY = SGP/SGP4

EPOCH          = 2026-02-07T18:39:11.444256
MEAN_MOTION    = 15.21015475
ECCENTRICITY   = .0013772
INCLINATION    = 81.1564
RA_OF_ASC_NODE = 248.5184
ARG_OF_PERICENTER = 29.6714
MEAN_ANOMALY   = 330.5296

EPHEMERIS_TYPE = 0
CLASSIFICATION_TYPE = U
NORAD_CAT_ID   = 12904
ELEMENT_SET_NO = 999
REV_AT_EPOCH   = 96868
BSTAR          = .31497E-3
MEAN_MOTION_DOT = .7029E-4
MEAN_MOTION_DDOT = 0

CCSDS_OMM_VERS = 2.0
CREATION_DATE  = 
ORIGINATOR     = 

OBJECT_NAME    = SL-3 R/B
OBJECT_ID      = 1982-013B
CENTER_NAME    = EARTH
REF_FRAME      = TEME
TIME_SYSTEM    = UTC
MEAN_ELEMENT_THEORY = SGP/SGP4

EPOCH          = 2026-02-07T19:09:20.693088
MEAN_MOTION    = 15.21682000
ECCENTRICITY   = .0021748
INCLINATION    = 81.1741
RA_OF_ASC_NODE = 195.7908
ARG_OF_PERICENTER = 281.2740
MEAN_ANOMALY   = 78.6047

EPHEMERIS_TYPE = 0
CLASSIFICATION_TYPE = U
NORAD_CAT_ID   = 13068
ELEMENT_SET_NO = 999
REV_AT_EPOCH   = 39980
BSTAR          = .26098E-3
MEAN_MOTION_DOT = .5965E-4
MEAN_MOTION_DDOT = 0

CCSDS_OMM_VERS = 2.0
CREATION_DATE  = 
ORIGINATOR     = 

OBJECT_NAME    = SL-3 R/B
OBJECT_ID      = 1982-039B
CENTER_NAME    = EARTH
REF_FRAME      = TEME
TIME_SYSTEM    = UTC
MEAN_ELEMENT_THEORY = SGP/SGP4

EPOCH          = 2026-02-07T18:30:10.945728
MEAN_MOTION    = 15.09915553
ECCENTRICITY   = .0030071
INCLINATION    = 81.1614
RA_OF_ASC_NODE = 250.4470
ARG_OF_PERICENTER = 62.3968
MEAN_ANOMALY   = 298.0305

EPHEMERIS_TYPE = 0
CLASSIFICATION_TYPE = U
NORAD_CAT_ID   = 13154
ELEMENT_SET_NO = 999
REV_AT_EPOCH   = 37712
BSTAR          = .18709E-3
MEAN_MOTION_DOT = .3088E-4
MEAN_MOTION_DDOT = 0

