ATLAS CENTAUR R/B       
1 06155U 72065B   26038.28770270  .00001842  00000+0  25445-3 0  9996
2 06155  35.0010 123.9057 0033127 114.6511 245.7645 14.77597814836766
SL-8 R/B                
1 08459U 75112B   26038.52283589  .00000250  00000+0  90789-4 0  9996
2 08459  74.0593  74.4096 0015460 178.1390 181.9824 14.38188718627536
SL-3 R/B                
1 10114U 77057B   26038.79739793  .00016423  00000+0  35410-3 0  9997
2 10114  97.5734 209.4310 0008081  38.0509 322.1308 15.44625566663711
SEASAT 1                
1 10967U 78064A   26038.82098372  .00000429  00000+0  15825-3 0  9994
2 10967 108.0163  62.8160 0001580 291.5487  68.5490 14.46135983502190
SL-14 R/B               
1 11267U 79011B   26038.73395251  .00000867  00000+0  83157-4 0  9997
2 11267  82.5255 124.9937 0016733 152.9911 207.2183 14.91871219524310
SL-8 R/B                
1 11574U 79089B   26038.71270478  .00000404  00000+0  13011-3 0  9992
2 11574  74.0698 146.5320 0016527 322.9540  37.0474 14.42331914431781
SL-14 R/B               
1 11672U 80005B   26038.86153103  .00000954  00000+0  94162-4 0  9999
2 11672  82.5173 335.5214 0014112 262.5976  97.3639 14.90890495472047
SL-8 R/B                
1 12139U 81003B   26038.85653829  .00022436  00000+0  59494-3 0  9993
2 12139  82.9393 317.5857 0263427 282.8393  74.3527 15.09891789310174
SL-3 R/B                
1 12465U 81046B   26038.86108644  .00016272  00000+0  38865-3 0  9993
2 12465  81.2341 325.5315 0020656 119.8461 240.4838 15.41157518433830
SL-3 R/B                
1 12904U 81103B   26038.77721579  .00007029  00000+0  31497-3 0  9997
2 12904  81.1564 248.5184 0013772  29.6714 330.5296 15.21015475968680
SL-3 R/B                
1 13068U 82013B   26038.79815617  .00005965  00000+0  26098-3 0  9997
2 13068  81.1741 195.7908 0021748 281.2740  78.6047 15.21682000399803
SL-3 R/B                
1 13154U 82039B   26038.77096002  .00003088  00000+0  18709-3 0  9992
2 13154  81.1614 250.4470 0030071  62.3968 298.0305 15.09915553377124
